KUIPER-00141            
1 65966U 25228V   25308.17938100  .00029158  00000+0  85885-3 0  9999
2 65966  51.8803 206.3529 0005437 212.4095 147.6557 15.34795864  4492
KUIPER-00146            
1 65967U 25228W   25308.17984986  .00033057  00000+0  97254-3 0  9999
2 65967  51.8810 206.3642 0005594 214.4871 145.5753 15.34768204  4498
KUIPER-00149            
1 65968U 25228X   25308.11221576  .00026297  00000+0  77234-3 0  9997
2 65968  51.8805 206.6551 0005497 211.3752 148.6907 15.34942951  4488
KUIPER-00154            
1 65969U 25228Y   25308.17637527  .00031710  00000+0  92627-3 0  9990
2 65969  51.8802 206.3349 0005759 208.4575 151.6097 15.35013258  4494
KUIPER-00157            
1 65970U 25228Z   25308.18302205  .00031906  00000+0  94532-3 0  9999
2 65970  51.8812 206.3840 0005693 226.1931 133.8584 15.34562889  4494
STRIX-5                 
1 65971U 25229A   25308.13281232  .00005298  00000+0  40814-3 0  9991
2 65971  41.9269  93.0964 0039047  18.2503 341.9714 15.01733695  3107
ELECTRON R/B            
1 65972U 25229B   25307.80026377  .00004683  00000+0  36247-3 0  9994
2 65972  41.9268  94.9326 0039114  16.0549 344.1507 15.01728763  3037
ELECTRON KICK STAGE R/B 
1 65973U 25229C   25308.12131051  .00006829  00000+0  50919-3 0  9993
2 65973  41.9821  93.1233 0040204  18.3017 341.9246 15.02626717  3074
SDA_1664                
1 65974U 25230A   25308.22651372  .00000240  00000+0  20283-3 0  9992
2 65974  81.2993  60.3269 0003416  63.5851 296.5657 13.84696637  2671
SDA_1665                
1 65975U 25230B   25308.28862262  .00000183  00000+0  15006-3 0  9994
2 65975  81.3030  60.2573 0005013 105.5414 254.6297 13.85426594  2689
SDA_1666                
1 65976U 25230C   25308.22750273  .00000258  00000+0  21889-3 0  9996
2 65976  81.3001  60.3303 0003066  60.7060 299.4403 13.84625427  2675
SDA_1667                
1 65977U 25230D   25308.22402331  .00000263  00000+0  22283-3 0  9991
2 65977  81.2997  60.3246 0003939  74.0809 286.0782 13.84876178  2676
